[{"OBJECT_NAME":"ONEWEB-0182","OBJECT_ID":"2021-031U","EPOCH":"2026-03-09T16:42:32.721984","MEAN_MOTION":13.14502258,"ECCENTRICITY":0.00015336,"INCLINATION":87.8984,"RA_OF_ASC_NODE":309.5585,"ARG_OF_PERICENTER":72.9127,"MEAN_ANOMALY":287.217,"EPHEMERIS_TYPE":0,"CLASSIFICATION_TYPE":"U","NORAD_CAT_ID":48228,"ELEMENT_SET_NO":999,"REV_AT_EPOCH":23536,"BSTAR":-0.00056599097,"MEAN_MOTION_DOT":-1.97e-6,"MEAN_MOTION_DDOT":0},{"OBJECT_NAME":"DELTA 1 DEB","OBJECT_ID":"1973-086EP","EPOCH":"2026-03-09T22:25:39.258624","MEAN_MOTION":13.16908943,"ECCENTRICITY":0.02405736,"INCLINATION":102.0404,"RA_OF_ASC_NODE":68.2966,"ARG_OF_PERICENTER":186.6574,"MEAN_ANOMALY":204.016,"EPHEMERIS_TYPE":0,"CLASSIFICATION_TYPE":"U","NORAD_CAT_ID":7177,"ELEMENT_SET_NO":999,"REV_AT_EPOCH":49192,"BSTAR":0.0019260639,"MEAN_MOTION_DOT":8.03e-6,"MEAN_MOTION_DDOT":0}]
